{"type": "FeatureCollection", "features": [ {"type": "Feature", "properties": {"norad_id": 66940, "name": "STARLINK-36121", "group": "last-30-days", "lat": -48.92359261496211, "lon": -57.41937560123791, "alt_km": 355.2786282559864, "timestamp": "2025-12-22T09:53:36.146238+00:00", "meta": {"OBJECT_NAME": "STARLINK-36121", "OBJECT_ID": "2025-286R", "EPOCH": "2025-12-22T04:00:01.998720", "MEAN_MOTION": 15.74210189, "ECCENTRICITY": 6.18e-05, "INCLINATION": 53.1585, "RA_OF_ASC_NODE": 3.137, "ARG_OF_PERICENTER": 91.1547, "MEAN_ANOMALY": 246.6736, "EPHEMERIS_TYPE": 0, "CLASSIFICATION_TYPE": "U", "NORAD_CAT_ID": 66940, "ELEMENT_SET_NO": 999, "REV_AT_EPOCH": 350, "BSTAR": -0.015944, "MEAN_MOTION_DOT": -0.02057091, "MEAN_MOTION_DDOT": 0}, "tle": {"line1": "1 66940U 25286R   25356.16668980 -.02057091  00000+0 -15944-1 0  9992", "line2": "2 66940  53.1585   3.1370 0000618  91.1547 246.6736 15.74210189  3500"}}, "geometry": {"type": "Point", "coordinates": [-57.41937560123791, -48.92359261496211]}}, {"type": "Feature", "properties": {"norad_id": 66941, "name": "STARLINK-36088", "group": "last-30-days", "lat": -50.18349017567071, "lon": -62.14959226263073, "alt_km": 352.4470439404222, "timestamp": "2025-12-22T09:53:36.146248+00:00", "meta": {"OBJECT_NAME": "STARLINK-36088", "OBJECT_ID": "2025-286S", "EPOCH": "2025-12-22T04:00:01.998720", "MEAN_MOTION": 15.74308955, "ECCENTRICITY": 0.0001001, "INCLINATION": 53.1586, "RA_OF_ASC_NODE": 3.1454, "ARG_OF_PERICENTER": 79.5209, "MEAN_ANOMALY": 254.471, "EPHEMERIS_TYPE": 0, "CLASSIFICATION_TYPE": "U", "NORAD_CAT_ID": 66941, "ELEMENT_SET_NO": 999, "REV_AT_EPOCH": 350, "BSTAR": -0.002373, "MEAN_MOTION_DOT": -0.00336399, "MEAN_MOTION_DDOT": 0}, "tle": {"line1": "1 66941U 25286S   25356.16668980 -.00336399  00000+0 -23730-2 0  9995", "line2": "2 66941  53.1586   3.1454 0001001  79.5209 254.4710 15.74308955  3505"}}, "geometry": {"type": "Point", "coordinates": [-62.14959226263073, -50.18349017567071]}}, {"type": "Feature", "properties": {"norad_id": 66942, "name": "STARLINK-36100", "group": "last-30-days", "lat": -48.11318190886735, "lon": -54.80709784943021, "alt_km": 355.2312060236882, "timestamp": "2025-12-22T09:53:36.146258+00:00", "meta": {"OBJECT_NAME": "STARLINK-36100", "OBJECT_ID": "2025-286T", "EPOCH": "2025-12-22T04:00:01.998720", "MEAN_MOTION": 15.74225019, "ECCENTRICITY": 6.32e-05, "INCLINATION": 53.1585, "RA_OF_ASC_NODE": 3.1332, "ARG_OF_PERICENTER": 89.0216, "MEAN_ANOMALY": 250.7147, "EPHEMERIS_TYPE": 0, "CLASSIFICATION_TYPE": "U", "NORAD_CAT_ID": 66942, "ELEMENT_SET_NO": 999, "REV_AT_EPOCH": 343, "BSTAR": -0.016071, "MEAN_MOTION_DOT": -0.02072753, "MEAN_MOTION_DDOT": 0}, "tle": {"line1": "1 66942U 25286T   25356.16668980 -.02072753  00000+0 -16071-1 0  9998", "line2": "2 66942  53.1585   3.1332 0000632  89.0216 250.7147 15.74225019  3437"}}, "geometry": {"type": "Point", "coordinates": [-54.80709784943021, -48.11318190886735]}}, {"type": "Feature", "properties": {"norad_id": 66943, "name": "STARLINK-36109", "group": "last-30-days", "lat": -47.2451307787817, "lon": -52.278419659373334, "alt_km": 355.30829806943257, "timestamp": "2025-12-22T09:53:36.146267+00:00", "meta": {"OBJECT_NAME": "STARLINK-36109", "OBJECT_ID": "2025-286U", "EPOCH": "2025-12-22T04:00:01.998720", "MEAN_MOTION": 15.7421041, "ECCENTRICITY": 7.18e-05, "INCLINATION": 53.1586, "RA_OF_ASC_NODE": 3.1291, "ARG_OF_PERICENTER": 100.201, "MEAN_ANOMALY": 241.4589, "EPHEMERIS_TYPE": 0, "CLASSIFICATION_TYPE": "U", "NORAD_CAT_ID": 66943, "ELEMENT_SET_NO": 999, "REV_AT_EPOCH": 343, "BSTAR": -0.015922, "MEAN_MOTION_DOT": -0.02054747, "MEAN_MOTION_DDOT": 0}, "tle": {"line1": "1 66943U 25286U   25356.16668980 -.02054747  00000+0 -15922-1 0  9996", "line2": "2 66943  53.1586   3.1291 0000718 100.2010 241.4589 15.74210410  3432"}}, "geometry": {"type": "Point", "coordinates": [-52.278419659373334, -47.2451307787817]}}, {"type": "Feature", "properties": {"norad_id": 66944, "name": "STARLINK-36112", "group": "last-30-days", "lat": -46.32453361820771, "lon": -49.837707045744665, "alt_km": 355.2499001181586, "timestamp": "2025-12-22T09:53:36.146279+00:00", "meta": {"OBJECT_NAME": "STARLINK-36112", "OBJECT_ID": "2025-286V", "EPOCH": "2025-12-22T04:00:01.998720", "MEAN_MOTION": 15.74211935, "ECCENTRICITY": 7.46e-05, "INCLINATION": 53.1586, "RA_OF_ASC_NODE": 3.1251, "ARG_OF_PERICENTER": 92.9466, "MEAN_ANOMALY": 250.6267, "EPHEMERIS_TYPE": 0, "CLASSIFICATION_TYPE": "U", "NORAD_CAT_ID": 66944, "ELEMENT_SET_NO": 999, "REV_AT_EPOCH": 350, "BSTAR": -0.015906, "MEAN_MOTION_DOT": -0.02053044, "MEAN_MOTION_DDOT": 0}, "tle": {"line1": "1 66944U 25286V   25356.16668980 -.02053044  00000+0 -15906-1 0  9998", "line2": "2 66944  53.1586   3.1251 0000746  92.9466 250.6267 15.74211935  3508"}}, "geometry": {"type": "Point", "coordinates": [-49.837707045744665, -46.32453361820771]}}, {"type": "Feature", "properties": {"norad_id": 66945, "name": "STARLINK-36110", "group": "last-30-days", "lat": -45.352321994652925, "lon": -47.47782129978936, "alt_km": 355.4824527666724, "timestamp": "2025-12-22T09:53:36.146289+00:00", "meta": {"OBJECT_NAME": "STARLINK-36110", "OBJECT_ID": "2025-286W", "EPOCH": "2025-12-22T04:00:01.998720", "MEAN_MOTION": 15.74191092, "ECCENTRICITY": 0.0001045, "INCLINATION": 53.1583, "RA_OF_ASC_NODE": 3.1211, "ARG_OF_PERICENTER": 102.4841, "MEAN_ANOMALY": 243.0155, "EPHEMERIS_TYPE": 0, "CLASSIFICATION_TYPE": "U", "NORAD_CAT_ID": 66945, "ELEMENT_SET_NO": 999, "REV_AT_EPOCH": 350, "BSTAR": -0.015707, "MEAN_MOTION_DOT": -0.02029129, "MEAN_MOTION_DDOT": 0}, "tle": {"line1": "1 66945U 25286W   25356.16668980 -.02029129  00000+0 -15707-1 0  9995", "line2": "2 66945  53.1583   3.1211 0001045 102.4841 243.0155 15.74191092  3502"}}, "geometry": {"type": "Point", "coordinates": [-47.47782129978936, -45.352321994652925]}}, {"type": "Feature", "properties": {"norad_id": 66946, "name": "STARLINK-36115", "group": "last-30-days", "lat": -44.33336256881803, "lon": -45.199789194319095, "alt_km": 355.3150514285344, "timestamp": "2025-12-22T09:53:36.146299+00:00", "meta": {"OBJECT_NAME": "STARLINK-36115", "OBJECT_ID": "2025-286X", "EPOCH": "2025-12-22T04:00:01.998720", "MEAN_MOTION": 15.74192612, "ECCENTRICITY": 9.59e-05, "INCLINATION": 53.1584, "RA_OF_ASC_NODE": 3.1168, "ARG_OF_PERICENTER": 94.2361, "MEAN_ANOMALY": 253.1804, "EPHEMERIS_TYPE": 0, "CLASSIFICATION_TYPE": "U", "NORAD_CAT_ID": 66946, "ELEMENT_SET_NO": 999, "REV_AT_EPOCH": 350, "BSTAR": -0.015717, "MEAN_MOTION_DOT": -0.0203024, "MEAN_MOTION_DDOT": 0}, "tle": {"line1": "1 66946U 25286X   25356.16668980 -.02030240  00000+0 -15717-1 0  9993", "line2": "2 66946  53.1584   3.1168 0000959  94.2361 253.1804 15.74192612  3505"}}, "geometry": {"type": "Point", "coordinates": [-45.199789194319095, -44.33336256881803]}}, {"type": "Feature", "properties": {"norad_id": 66947, "name": "STARLINK-36089", "group": "last-30-days", "lat": -42.165720218037, "lon": -40.8774407897316, "alt_km": 354.8121545744798, "timestamp": "2025-12-22T09:53:36.146309+00:00", "meta": {"OBJECT_NAME": "STARLINK-36089", "OBJECT_ID": "2025-286Y", "EPOCH": "2025-12-22T04:00:01.998720", "MEAN_MOTION": 15.74180839, "ECCENTRICITY": 5.78e-05, "INCLINATION": 53.1586, "RA_OF_ASC_NODE": 3.1085, "ARG_OF_PERICENTER": 67.2428, "MEAN_ANOMALY": 284.0146, "EPHEMERIS_TYPE": 0, "CLASSIFICATION_TYPE": "U", "NORAD_CAT_ID": 66947, "ELEMENT_SET_NO": 999, "REV_AT_EPOCH": 350, "BSTAR": -0.015629, "MEAN_MOTION_DOT": -0.02019042, "MEAN_MOTION_DDOT": 0}, "tle": {"line1": "1 66947U 25286Y   25356.16668980 -.02019042  00000+0 -15629-1 0  9993", "line2": "2 66947  53.1586   3.1085 0000578  67.2428 284.0146 15.74180839  3507"}}, "geometry": {"type": "Point", "coordinates": [-40.8774407897316, -42.165720218037]}}, {"type": "Feature", "properties": {"norad_id": 66948, "name": "STARLINK-36116", "group": "last-30-days", "lat": -43.2694818531929, "lon": -42.99883573841888, "alt_km": 354.85550230876925, "timestamp": "2025-12-22T09:53:36.146319+00:00", "meta": {"OBJECT_NAME": "STARLINK-36116", "OBJECT_ID": "2025-286Z", "EPOCH": "2025-12-22T04:00:01.998720", "MEAN_MOTION": 15.74181771, "ECCENTRICITY": 5.34e-05, "INCLINATION": 53.1586, "RA_OF_ASC_NODE": 3.1127, "ARG_OF_PERICENTER": 67.7807, "MEAN_ANOMALY": 281.5606, "EPHEMERIS_TYPE": 0, "CLASSIFICATION_TYPE": "U", "NORAD_CAT_ID": 66948, "ELEMENT_SET_NO": 999, "REV_AT_EPOCH": 350, "BSTAR": -0.015646, "MEAN_MOTION_DOT": -0.0202101, "MEAN_MOTION_DDOT": 0}, "tle": {"line1": "1 66948U 25286Z   25356.16668980 -.02021010  00000+0 -15646-1 0  9991", "line2": "2 66948  53.1586   3.1127 0000534  67.7807 281.5606 15.74181771  3502"}}, "geometry": {"type": "Point", "coordinates": [-42.99883573841888, -43.2694818531929]}}, {"type": "Feature", "properties": {"norad_id": 66949, "name": "STARLINK-36096", "group": "last-30-days", "lat": -41.018537873344975, "lon": -38.820395977874426, "alt_km": 355.098457334213, "timestamp": "2025-12-22T09:53:36.146329+00:00", "meta": {"OBJECT_NAME": "STARLINK-36096", "OBJECT_ID": "2025-286AA", "EPOCH": "2025-12-22T04:00:01.998720", "MEAN_MOTION": 15.74200854, "ECCENTRICITY": 7.9e-05, "INCLINATION": 53.1583, "RA_OF_ASC_NODE": 3.105, "ARG_OF_PERICENTER": 102.7281, "MEAN_ANOMALY": 250.4407, "EPHEMERIS_TYPE": 0, "CLASSIFICATION_TYPE": "U", "NORAD_CAT_ID": 66949, "ELEMENT_SET_NO": 999, "REV_AT_EPOCH": 350, "BSTAR": -0.015849, "MEAN_MOTION_DOT": -0.02045751, "MEAN_MOTION_DDOT": 0}, "tle": {"line1": "1 66949U 25286AA  25356.16668980 -.02045751  00000+0 -15849-1 0  9995", "line2": "2 66949  53.1583   3.1050 0000790 102.7281 250.4407 15.74200854  3503"}}, "geometry": {"type": "Point", "coordinates": [-38.820395977874426, -41.018537873344975]}}]}